O3B FM5                 
1 39188U 13031A   22275.41864544 -.00000019  00000+0  00000+0 0  9990
2 39188   0.0633  17.1905 0002635 178.0299 164.7765  5.00115266169310
O3B FM4                 
1 39189U 13031B   22275.47465654 -.00000020  00000+0  00000+0 0  9998
2 39189   0.0515 351.7771 0002586 203.0636 165.1564  5.00115786169338
O3B FM2                 
1 39190U 13031C   22275.36616994 -.00000019  00000+0  00000+0 0  9991
2 39190   0.0519 346.2263 0002621 208.1191 165.6519  5.00115327169382
O3B PFM                 
1 39191U 13031D   22275.19259236 -.00000019  00000+0  00000+0 0  9995
2 39191   0.0570  11.1317 0002651 180.4091 168.4580  5.00115637168935
O3B FM3                 
1 40079U 14038A   22274.44780926 -.00000017  00000+0  00000+0 0  9990
2 40079   0.0542 359.7545 0004879 175.2170 185.0387  5.00115299145275
O3B FM7                 
1 40080U 14038B   22274.79366083 -.00000018  00000+0  00000+0 0  9995
2 40080   0.0565 355.8295 0001810 240.4225 123.7359  5.00115432150126
O3B FM6                 
1 40081U 14038C   22275.41971207 -.00000019  00000+0  00000+0 0  9997
2 40081   0.0532 359.1522 0002714 192.8498 167.9963  5.00115275150101
O3B FM8                 
1 40082U 14038D   22275.47362954 -.00000020  00000+0  00000+0 0  9999
2 40082   0.0513 356.3820 0002639 192.8428 170.7751  5.00115595150225
O3B FM10                
1 40348U 14083A   22274.90002959 -.00000018  00000+0  00000+0 0  9994
2 40348   0.0523   8.8508 0002634 182.0354 169.1132  5.00115076142137
O3B FM11                
1 40349U 14083B   22274.91347743 -.00000018  00000+0  00000+0 0  9999
2 40349   0.0569   7.7350 0002555 199.0600 153.1969  5.00115368142163
O3B FM12                
1 40350U 14083C   22275.34047066 -.00000019  00000+0  00000+0 0  9995
2 40350   0.0561   7.1488 0002771 187.2330 165.6151  5.00115220142193
O3B FM9                 
1 40351U 14083D   22275.16744766 -.00000019  00000+0  00000+0 0  9997
2 40351   0.0581   7.8671 0002608 184.7097 167.4216  5.00116062142331
DIAMOND RED             
1 42783U 17036U   22275.37685479  .00011685  00000+0  41590-3 0  9990
2 42783  97.1901 312.5464 0008575 316.8268  43.2300 15.29074882293278
DIAMOND GREEN           
1 42785U 17036W   22275.37756959  .00012193  00000+0  43384-3 0  9992
2 42785  97.1903 312.6107 0008360 318.4180  41.6424 15.29077012293345
DIAMOND BLUE            
1 42786U 17036X   22275.37667618  .00012336  00000+0  43894-3 0  9991
2 42786  97.1900 312.6017 0008436 319.0291  41.0315 15.29070745293346
LEO VANTAGE 1           
1 43113U 18004C   22275.21993913  .00003747  00000+0  30484-3 0  9992
2 43113  99.2424   6.6581 0399627 230.4280 126.0979 14.54186431239752
O3B FM15                
1 43231U 18024A   22275.23338747 -.00000019  00000+0  00000+0 0  9992
2 43231   0.0490  10.3082 0002943 183.3041 166.3846  5.00115949 83289
O3B FM16                
1 43232U 18024B   22275.28678026 -.00000019  00000+0  00000+0 0  9995
2 43232   0.0457  13.4919 0002921 180.7907 165.7139  5.00115822 83215
O3B FM14                
1 43233U 18024C   22275.12654380 -.00000019  00000+0  00000+0 0  9996
2 43233   0.0442  13.9465 0002772 182.6630 163.3864  5.00115258 83211
O3B FM13                
1 43234U 18024D   22274.38049839 -.00000017  00000+0  00000+0 0  9999
2 43234   0.0570  22.3886 0003715 175.8700 161.7335  5.00115003 83296
O3B FM20                
1 44112U 19020A   22275.35314016 -.00000019  00000+0  00000+0 0  9994
2 44112   0.0519   8.3166 0003111 191.9430 159.7329  5.00115404 63843
O3B FM19                
1 44113U 19020B   22275.18006097 -.00000019  00000+0  00000+0 0  9993
2 44113   0.0718  20.0463 0001667 195.2745 144.6730  5.00115084 63704
O3B FM17                
1 44114U 19020C   22275.26055570 -.00000019  00000+0  00000+0 0  9993
2 44114   0.0357 353.7287 0003061 200.3407 165.9269  5.00115500 63792
O3B FM18                
1 44115U 19020D   22275.20706873 -.00000019  00000+0  00000+0 0  9997
2 44115   0.0522   8.5573 0002887 182.9131 168.5279  5.00115705 63915
SALSAT                  
1 46495U 20068K   22275.36103334  .00003373  00000+0  24209-3 0  9990
2 46495  97.7370 216.7563 0014268 276.5191  83.4411 15.04940599110262
